$$SOE
2460742.500000000, A.D. 2025-Mar-08 00:00:00.0000, 3.971394630104743E+09, 1.305729434456753E+09, 3.147600859322786E+09,
2460749.500000000, A.D. 2025-Mar-15 00:00:00.0000, 3.969880623865046E+09, 1.308916831490358E+09, 3.147651408959762E+09,
2460756.500000000, A.D. 2025-Mar-22 00:00:00.0000, 3.968365275004230E+09, 1.312103701527145E+09, 3.147700889936199E+09,
2460763.500000000, A.D. 2025-Mar-29 00:00:00.0000, 3.966848585009574E+09, 1.315290047855401E+09, 3.147749302157276E+09,
2460770.500000000, A.D. 2025-Apr-05 00:00:00.0000, 3.965330554171148E+09, 1.318475873125337E+09, 3.147796645565153E+09,
2460777.500000000, A.D. 2025-Apr-12 00:00:00.0000, 3.963811182183939E+09, 1.321661179388597E+09, 3.147842920094112E+09,
2460784.500000000, A.D. 2025-Apr-19 00:00:00.0000, 3.962290468331396E+09, 1.324845968244622E+09, 3.147888125672995E+09,
2460791.500000000, A.D. 2025-Apr-26 00:00:00.0000, 3.960768411522072E+09, 1.328030240891170E+09, 3.147932262233147E+09,
2460798.500000000, A.D. 2025-May-03 00:00:00.0000, 3.959245010293025E+09, 1.331213998098552E+09, 3.147975329712801E+09,
2460805.500000000, A.D. 2025-May-10 00:00:00.0000, 3.957720262808555E+09, 1.334397240116599E+09, 3.148017328055798E+09,
2460812.500000000, A.D. 2025-May-17 00:00:00.0000, 3.956194166891052E+09, 1.337579966473657E+09, 3.148058257197788E+09,
2460819.500000000, A.D. 2025-May-24 00:00:00.0000, 3.954666720257817E+09, 1.340762175613411E+09, 3.148098117019420E+09,
2460826.500000000, A.D. 2025-May-31 00:00:00.0000, 3.953137921381688E+09, 1.343943864680792E+09, 3.148136907253559E+09,
2460833.500000000, A.D. 2025-Jun-07 00:00:00.0000, 3.951607770574479E+09, 1.347125030661957E+09, 3.148174627481756E+09,
2460840.500000000, A.D. 2025-Jun-14 00:00:00.0000, 3.950076268928718E+09, 1.350305672211703E+09, 3.148211277382336E+09,
2460847.500000000, A.D. 2025-Jun-21 00:00:00.0000, 3.948543416334431E+09, 1.353485788897143E+09, 3.148246856851193E+09,
2460854.500000000, A.D. 2025-Jun-28 00:00:00.0000, 3.947009211699175E+09, 1.356665379622482E+09, 3.148281365852627E+09,
2460861.500000000, A.D. 2025-Jul-05 00:00:00.0000, 3.945473653854585E+09, 1.359844442391537E+09, 3.148314804315591E+09,
2460868.500000000, A.D. 2025-Jul-12 00:00:00.0000, 3.943936741958464E+09, 1.363022974602806E+09, 3.148347172118858E+09,
2460875.500000000, A.D. 2025-Jul-19 00:00:00.0000, 3.942398475581953E+09, 1.366200973302166E+09, 3.148378469100768E+09,
2460882.500000000, A.D. 2025-Jul-26 00:00:00.0000, 3.940858854691744E+09, 1.369378435336781E+09, 3.148408695069777E+09,
2460889.500000000, A.D. 2025-Aug-02 00:00:00.0000, 3.939317879592683E+09, 1.372555357432034E+09, 3.148437849811693E+09,
2460896.500000000, A.D. 2025-Aug-09 00:00:00.0000, 3.937775550854229E+09, 1.375731736177063E+09, 3.148465933090381E+09,
2460903.500000000, A.D. 2025-Aug-16 00:00:00.0000, 3.936231869297672E+09, 1.378907567855965E+09, 3.148492944629901E+09,
2460910.500000000, A.D. 2025-Aug-23 00:00:00.0000, 3.934686836336747E+09, 1.382082848141413E+09, 3.148518884052794E+09,
2460917.500000000, A.D. 2025-Aug-30 00:00:00.0000, 3.933140455000603E+09, 1.385257572364977E+09, 3.148543750802924E+09,
2460924.500000000, A.D. 2025-Sep-06 00:00:00.0000, 3.931592730220961E+09, 1.388431737364593E+09, 3.148567544264948E+09,
2460931.500000000, A.D. 2025-Sep-13 00:00:00.0000, 3.930043666712738E+09, 1.391605342426492E+09, 3.148590264031013E+09,
2460938.500000000, A.D. 2025-Sep-20 00:00:00.0000, 3.928493267721350E+09, 1.394778387677282E+09, 3.148611909880289E+09,
2460945.500000000, A.D. 2025-Sep-27 00:00:00.0000, 3.926941535695251E+09, 1.397950873037945E+09, 3.148632481628794E+09,
2460952.500000000, A.D. 2025-Oct-04 00:00:00.0000, 3.925388472867008E+09, 1.401122798279127E+09, 3.148651979078694E+09,
2460959.500000000, A.D. 2025-Oct-11 00:00:00.0000, 3.923834081369277E+09, 1.404294163234926E+09, 3.148670402024396E+09,
2460966.500000000, A.D. 2025-Oct-18 00:00:00.0000, 3.922278363169316E+09, 1.407464967901008E+09, 3.148687750267037E+09,
2460973.500000000, A.D. 2025-Oct-25 00:00:00.0000, 3.920721319961591E+09, 1.410635212428407E+09, 3.148704023625440E+09,
2460980.500000000, A.D. 2025-Nov-01 00:00:00.0000, 3.919162953057871E+09, 1.413804897028868E+09, 3.148719221941064E+09,
2460987.500000000, A.D. 2025-Nov-08 00:00:00.0000, 3.917603263309311E+09, 1.416974021760811E+09, 3.148733345071091E+09,
2460994.500000000, A.D. 2025-Nov-15 00:00:00.0000, 3.916042251208358E+09, 1.420142586137797E+09, 3.148746392851066E+09,
2461001.500000000, A.D. 2025-Nov-22 00:00:00.0000, 3.914479917573086E+09, 1.423310588780071E+09, 3.148758365007962E+09,
2461008.500000000, A.D. 2025-Nov-29 00:00:00.0000, 3.912916264660715E+09, 1.426478028244611E+09, 3.148769261130238E+09,
2461015.500000000, A.D. 2025-Dec-06 00:00:00.0000, 3.911351295432831E+09, 1.429644904898071E+09, 3.148779080892480E+09,
2461022.500000000, A.D. 2025-Dec-13 00:00:00.0000, 3.909785011405910E+09, 1.432811220462631E+09, 3.148787824219243E+09,
2461029.500000000, A.D. 2025-Dec-20 00:00:00.0000, 3.908217412580330E+09, 1.435976976258286E+09, 3.148795491151202E+09,
2461036.500000000, A.D. 2025-Dec-27 00:00:00.0000, 3.906648498374026E+09, 1.439142172733290E+09, 3.148802081723791E+09,
2461043.500000000, A.D. 2026-Jan-03 00:00:00.0000, 3.905078268101573E+09, 1.442306809667756E+09, 3.148807595941862E+09,
2461050.500000000, A.D. 2026-Jan-10 00:00:00.0000, 3.903506721108466E+09, 1.445470886372186E+09, 3.148812033784826E+09,
2461057.500000000, A.D. 2026-Jan-17 00:00:00.0000, 3.901933856793143E+09, 1.448634401790192E+09, 3.148815395213545E+09,
2461064.500000000, A.D. 2026-Jan-24 00:00:00.0000, 3.900359674594713E+09, 1.451797354528940E+09, 3.148817680173763E+09,
2461071.500000000, A.D. 2026-Jan-31 00:00:00.0000, 3.898784173969826E+09, 1.454959742810856E+09, 3.148818888593435E+09,
2461078.500000000, A.D. 2026-Feb-07 00:00:00.0000, 3.897207354420213E+09, 1.458121564290163E+09, 3.148819020363719E+09,
2461085.500000000, A.D. 2026-Feb-14 00:00:00.0000, 3.895629215823944E+09, 1.461282815719843E+09, 3.148818075279298E+09,
2461092.500000000, A.D. 2026-Feb-21 00:00:00.0000, 3.894049759457979E+09, 1.464443493046841E+09, 3.148816052949741E+09,
2461099.500000000, A.D. 2026-Feb-28 00:00:00.0000, 3.892468988627160E+09, 1.467603593089616E+09, 3.148812952875752E+09,
2461106.500000000, A.D. 2026-Mar-07 00:00:00.0000, 3.890886906841098E+09, 1.470763114848392E+09, 3.148808774719851E+09,
2461113.500000000, A.D. 2026-Mar-14 00:00:00.0000, 3.889303516314672E+09, 1.473922058115556E+09, 3.148803518326335E+09,
2461120.500000000, A.D. 2026-Mar-21 00:00:00.0000, 3.887718818575005E+09, 1.477080422284242E+09, 3.148797183563949E+09,
2461127.500000000, A.D. 2026-Mar-28 00:00:00.0000, 3.886132815165555E+09, 1.480238206383795E+09, 3.148789770259725E+09,
2461134.500000000, A.D. 2026-Apr-04 00:00:00.0000, 3.884545507843546E+09, 1.483395409376456E+09, 3.148781278200637E+09,
2461141.500000000, A.D. 2026-Apr-11 00:00:00.0000, 3.882956898544717E+09, 1.486552030355335E+09, 3.148771707148688E+09,
2461148.500000000, A.D. 2026-Apr-18 00:00:00.0000, 3.881366989274771E+09, 1.489708068636918E+09, 3.148761056854478E+09,
2461155.500000000, A.D. 2026-Apr-25 00:00:00.0000, 3.879775781973570E+09, 1.492863523762844E+09, 3.148749327066481E+09,
2461162.500000000, A.D. 2026-May-02 00:00:00.0000, 3.878183278383140E+09, 1.496018395381290E+09, 3.148736517530934E+09,
2461169.500000000, A.D. 2026-May-09 00:00:00.0000, 3.876589480044430E+09, 1.499172682941777E+09, 3.148722627965730E+09,
2461176.500000000, A.D. 2026-May-16 00:00:00.0000, 3.874994388801186E+09, 1.502326385341726E+09, 3.148707657985007E+09,
2461183.500000000, A.D. 2026-May-23 00:00:00.0000, 3.873398007863022E+09, 1.505479501547201E+09, 3.148691607053378E+09,
2461190.500000000, A.D. 2026-May-30 00:00:00.0000, 3.871800341349484E+09, 1.508632032507420E+09, 3.148674474686499E+09,
2461197.500000000, A.D. 2026-Jun-06 00:00:00.0000, 3.870201391997874E+09, 1.511783981089495E+09, 3.148656260659507E+09,
2461204.500000000, A.D. 2026-Jun-13 00:00:00.0000, 3.868601160700864E+09, 1.514935350232359E+09, 3.148636964903222E+09,
2461211.500000000, A.D. 2026-Jun-20 00:00:00.0000, 3.866999647372882E+09, 1.518086142246041E+09, 3.148616587372980E+09,
2461218.500000000, A.D. 2026-Jun-27 00:00:00.0000, 3.865396851446915E+09, 1.521236358916446E+09, 3.148595128017863E+09,
2461225.500000000, A.D. 2026-Jul-04 00:00:00.0000, 3.863792772001601E+09, 1.524386001640787E+09, 3.148572586786721E+09,
2461232.500000000, A.D. 2026-Jul-11 00:00:00.0000, 3.862187407772549E+09, 1.527535071461811E+09, 3.148548963636643E+09,
2461239.500000000, A.D. 2026-Jul-18 00:00:00.0000, 3.860580757140563E+09, 1.530683569026611E+09, 3.148524258537222E+09,
2461246.500000000, A.D. 2026-Jul-25 00:00:00.0000, 3.858972818121224E+09, 1.533831494472816E+09, 3.148498471468348E+09,
2461253.500000000, A.D. 2026-Aug-01 00:00:00.0000, 3.857363588403872E+09, 1.536978847194108E+09, 3.148471602402999E+09,
2461260.500000000, A.D. 2026-Aug-08 00:00:00.0000, 3.855753065654852E+09, 1.540125625449259E+09, 3.148443651252259E+09,
2461267.500000000, A.D. 2026-Aug-15 00:00:00.0000, 3.854141248499972E+09, 1.543271826265215E+09, 3.148414617771170E+09,
2461274.500000000, A.D. 2026-Aug-22 00:00:00.0000, 3.852528137425029E+09, 1.546417446855650E+09, 3.148384501595013E+09,
2461281.500000000, A.D. 2026-Aug-29 00:00:00.0000, 3.850913733305195E+09, 1.549562486182437E+09, 3.148353302503728E+09,
2461288.500000000, A.D. 2026-Sep-05 00:00:00.0000, 3.849298035696775E+09, 1.552706943792050E+09, 3.148321020484404E+09,
2461295.500000000, A.D. 2026-Sep-12 00:00:00.0000, 3.847681043346180E+09, 1.555850818422695E+09, 3.148287655570644E+09,
2461302.500000000, A.D. 2026-Sep-19 00:00:00.0000, 3.846062755042272E+09, 1.558994107926348E+09, 3.148253207756884E+09,
2461309.500000000, A.D. 2026-Sep-26 00:00:00.0000, 3.844443169953381E+09, 1.562136809572807E+09, 3.148217676990184E+09,
2461316.500000000, A.D. 2026-Oct-03 00:00:00.0000, 3.842822287697552E+09, 1.565278920285059E+09, 3.148181063179908E+09,
$$EOE